[{"OBJECT_NAME":"TOMORROW-R2","OBJECT_ID":"2023-084AG","EPOCH":"2026-03-09T21:19:23.098656","MEAN_MOTION":15.71879583,"ECCENTRICITY":0.00051142,"INCLINATION":97.5895,"RA_OF_ASC_NODE":222.1734,"ARG_OF_PERICENTER":248.1295,"MEAN_ANOMALY":111.9424,"EPHEMERIS_TYPE":0,"CLASSIFICATION_TYPE":"U","NORAD_CAT_ID":56962,"ELEMENT_SET_NO":999,"REV_AT_EPOCH":15332,"BSTAR":0.00081619373,"MEAN_MOTION_DOT":0.00107013,"MEAN_MOTION_DDOT":0},{"OBJECT_NAME":"STARLINK-11474 [DTC]","OBJECT_ID":"2024-217J","EPOCH":"2026-03-09T23:32:38.596128","MEAN_MOTION":15.69853391,"ECCENTRICITY":0.00025977,"INCLINATION":53.1583,"RA_OF_ASC_NODE":69.4998,"ARG_OF_PERICENTER":120.0766,"MEAN_ANOMALY":240.051,"EPHEMERIS_TYPE":0,"CLASSIFICATION_TYPE":"U","NORAD_CAT_ID":62065,"ELEMENT_SET_NO":999,"REV_AT_EPOCH":7522,"BSTAR":0.0017757363,"MEAN_MOTION_DOT":0.0022171,"MEAN_MOTION_DDOT":0}]
